ONEWEB-0403             
1 50483U 21132Q   25161.70137427  .00000089  00000+0  19202-3 0  9998
2 50483  87.9154  49.2736 0001909  75.6013 284.5331 13.18687340172634
ONEWEB-0404             
1 50484U 21132R   25161.84250808 -.00000586  00000+0 -16884-2 0  9999
2 50484  87.8847  95.0919 0002057  68.1692 291.9655 13.11415907167029
ONEWEB-0405             
1 50485U 21132S   25161.64129715 -.00000035  00000+0 -12240-3 0  9992
2 50485  87.9145  49.2734 0001541  80.4701 279.6605 13.18687484173026
ONEWEB-0406             
1 50486U 21132T   25161.70611978  .00000045  00000+0  80806-4 0  9990
2 50486  87.9153  49.2817 0002299  69.0084 291.1294 13.18687104172667
ONEWEB-0407             
1 50487U 21132U   25161.69978355  .00000049  00000+0  90913-4 0  9998
2 50487  87.9152  49.2687 0001723  77.6780 282.4545 13.18688126172602
ONEWEB-0409             
1 50488U 21132V   25161.84081689 -.00000447  00000+0 -12984-2 0  9995
2 50488  87.8837  95.0577 0002249  72.6082 287.5292 13.11415500166912
ONEWEB-0412             
1 50489U 21132W   25161.91634186  .00000041  00000+0  72177-4 0  9990
2 50489  87.9150  49.2400 0001498  85.3493 274.7810 13.18687957172724
ONEWEB-0413             
1 50490U 21132X   25161.92109576  .00000051  00000+0  96501-4 0  9991
2 50490  87.9154  49.2528 0001610  87.4851 272.6465 13.18688024172660
