<?xml version="1.0" encoding="UTF-8"?>
<ndm xmlns:xsi="http://www.w3.org/2001/XMLSchema-instance" xsi:noNamespaceSchemaLocation="https://sanaregistry.org/r/ndmxml_unqualified/ndmxml-2.0.0-master-2.0.xsd">
<omm id="CCSDS_OMM_VERS" version="2.0">
<header><CREATION_DATE/><ORIGINATOR/></header><body><segment><metadata><OBJECT_NAME>ONEWEB-0403</OBJECT_NAME><OBJECT_ID>2021-132Q</OBJECT_ID><CENTER_NAME>EARTH</CENTER_NAME><REF_FRAME>TEME</REF_FRAME><TIME_SYSTEM>UTC</TIME_SYSTEM><MEAN_ELEMENT_THEORY>SGP4</MEAN_ELEMENT_THEORY></metadata><data><meanElements><EPOCH>2025-06-10T16:49:58.736928</EPOCH><MEAN_MOTION>13.18687340</MEAN_MOTION><ECCENTRICITY>.0001909</ECCENTRICITY><INCLINATION>87.9154</INCLINATION><RA_OF_ASC_NODE>49.2736</RA_OF_ASC_NODE><ARG_OF_PERICENTER>75.6013</ARG_OF_PERICENTER><MEAN_ANOMALY>284.5331</MEAN_ANOMALY></meanElements><tleParameters><EPHEMERIS_TYPE>0</EPHEMERIS_TYPE><CLASSIFICATION_TYPE>U</CLASSIFICATION_TYPE><NORAD_CAT_ID>50483</NORAD_CAT_ID><ELEMENT_SET_NO>999</ELEMENT_SET_NO><REV_AT_EPOCH>17263</REV_AT_EPOCH><BSTAR>.19202E-3</BSTAR><MEAN_MOTION_DOT>.89E-6</MEAN_MOTION_DOT><MEAN_MOTION_DDOT>0</MEAN_MOTION_DDOT></tleParameters></data></segment></body></omm>
<omm id="CCSDS_OMM_VERS" version="2.0">
<header><CREATION_DATE/><ORIGINATOR/></header><body><segment><metadata><OBJECT_NAME>ONEWEB-0404</OBJECT_NAME><OBJECT_ID>2021-132R</OBJECT_ID><CENTER_NAME>EARTH</CENTER_NAME><REF_FRAME>TEME</REF_FRAME><TIME_SYSTEM>UTC</TIME_SYSTEM><MEAN_ELEMENT_THEORY>SGP4</MEAN_ELEMENT_THEORY></metadata><data><meanElements><EPOCH>2025-06-10T20:13:12.698112</EPOCH><MEAN_MOTION>13.11415907</MEAN_MOTION><ECCENTRICITY>.0002057</ECCENTRICITY><INCLINATION>87.8847</INCLINATION><RA_OF_ASC_NODE>95.0919</RA_OF_ASC_NODE><ARG_OF_PERICENTER>68.1692</ARG_OF_PERICENTER><MEAN_ANOMALY>291.9655</MEAN_ANOMALY></meanElements><tleParameters><EPHEMERIS_TYPE>0</EPHEMERIS_TYPE><CLASSIFICATION_TYPE>U</CLASSIFICATION_TYPE><NORAD_CAT_ID>50484</NORAD_CAT_ID><ELEMENT_SET_NO>999</ELEMENT_SET_NO><REV_AT_EPOCH>16702</REV_AT_EPOCH><BSTAR>-.16884E-2</BSTAR><MEAN_MOTION_DOT>-.586E-5</MEAN_MOTION_DOT><MEAN_MOTION_DDOT>0</MEAN_MOTION_DDOT></tleParameters></data></segment></body></omm>
<omm id="CCSDS_OMM_VERS" version="2.0">
<header><CREATION_DATE/><ORIGINATOR/></header><body><segment><metadata><OBJECT_NAME>ONEWEB-0405</OBJECT_NAME><OBJECT_ID>2021-132S</OBJECT_ID><CENTER_NAME>EARTH</CENTER_NAME><REF_FRAME>TEME</REF_FRAME><TIME_SYSTEM>UTC</TIME_SYSTEM><MEAN_ELEMENT_THEORY>SGP4</MEAN_ELEMENT_THEORY></metadata><data><meanElements><EPOCH>2025-06-10T15:23:28.073760</EPOCH><MEAN_MOTION>13.18687484</MEAN_MOTION><ECCENTRICITY>.0001541</ECCENTRICITY><INCLINATION>87.9145</INCLINATION><RA_OF_ASC_NODE>49.2734</RA_OF_ASC_NODE><ARG_OF_PERICENTER>80.4701</ARG_OF_PERICENTER><MEAN_ANOMALY>279.6605</MEAN_ANOMALY></meanElements><tleParameters><EPHEMERIS_TYPE>0</EPHEMERIS_TYPE><CLASSIFICATION_TYPE>U</CLASSIFICATION_TYPE><NORAD_CAT_ID>50485</NORAD_CAT_ID><ELEMENT_SET_NO>999</ELEMENT_SET_NO><REV_AT_EPOCH>17302</REV_AT_EPOCH><BSTAR>-.1224E-3</BSTAR><MEAN_MOTION_DOT>-.35E-6</MEAN_MOTION_DOT><MEAN_MOTION_DDOT>0</MEAN_MOTION_DDOT></tleParameters></data></segment></body></omm>
<omm id="CCSDS_OMM_VERS" version="2.0">
<header><CREATION_DATE/><ORIGINATOR/></header><body><segment><metadata><OBJECT_NAME>ONEWEB-0406</OBJECT_NAME><OBJECT_ID>2021-132T</OBJECT_ID><CENTER_NAME>EARTH</CENTER_NAME><REF_FRAME>TEME</REF_FRAME><TIME_SYSTEM>UTC</TIME_SYSTEM><MEAN_ELEMENT_THEORY>SGP4</MEAN_ELEMENT_THEORY></metadata><data><meanElements><EPOCH>2025-06-10T16:56:48.748992</EPOCH><MEAN_MOTION>13.18687104</MEAN_MOTION><ECCENTRICITY>.0002299</ECCENTRICITY><INCLINATION>87.9153</INCLINATION><RA_OF_ASC_NODE>49.2817</RA_OF_ASC_NODE><ARG_OF_PERICENTER>69.0084</ARG_OF_PERICENTER><MEAN_ANOMALY>291.1294</MEAN_ANOMALY></meanElements><tleParameters><EPHEMERIS_TYPE>0</EPHEMERIS_TYPE><CLASSIFICATION_TYPE>U</CLASSIFICATION_TYPE><NORAD_CAT_ID>50486</NORAD_CAT_ID><ELEMENT_SET_NO>999</ELEMENT_SET_NO><REV_AT_EPOCH>17266</REV_AT_EPOCH><BSTAR>.80806E-4</BSTAR><MEAN_MOTION_DOT>.45E-6</MEAN_MOTION_DOT><MEAN_MOTION_DDOT>0</MEAN_MOTION_DDOT></tleParameters></data></segment></body></omm>
<omm id="CCSDS_OMM_VERS" version="2.0">
<header><CREATION_DATE/><ORIGINATOR/></header><body><segment><metadata><OBJECT_NAME>ONEWEB-0407</OBJECT_NAME><OBJECT_ID>2021-132U</OBJECT_ID><CENTER_NAME>EARTH</CENTER_NAME><REF_FRAME>TEME</REF_FRAME><TIME_SYSTEM>UTC</TIME_SYSTEM><MEAN_ELEMENT_THEORY>SGP4</MEAN_ELEMENT_THEORY></metadata><data><meanElements><EPOCH>2025-06-10T16:47:41.298720</EPOCH><MEAN_MOTION>13.18688126</MEAN_MOTION><ECCENTRICITY>.0001723</ECCENTRICITY><INCLINATION>87.9152</INCLINATION><RA_OF_ASC_NODE>49.2687</RA_OF_ASC_NODE><ARG_OF_PERICENTER>77.6780</ARG_OF_PERICENTER><MEAN_ANOMALY>282.4545</MEAN_ANOMALY></meanElements><tleParameters><EPHEMERIS_TYPE>0</EPHEMERIS_TYPE><CLASSIFICATION_TYPE>U</CLASSIFICATION_TYPE><NORAD_CAT_ID>50487</NORAD_CAT_ID><ELEMENT_SET_NO>999</ELEMENT_SET_NO><REV_AT_EPOCH>17260</REV_AT_EPOCH><BSTAR>.90913E-4</BSTAR><MEAN_MOTION_DOT>.49E-6</MEAN_MOTION_DOT><MEAN_MOTION_DDOT>0</MEAN_MOTION_DDOT></tleParameters></data></segment></body></omm>
<omm id="CCSDS_OMM_VERS" version="2.0">
<header><CREATION_DATE/><ORIGINATOR/></header><body><segment><metadata><OBJECT_NAME>ONEWEB-0409</OBJECT_NAME><OBJECT_ID>2021-132V</OBJECT_ID><CENTER_NAME>EARTH</CENTER_NAME><REF_FRAME>TEME</REF_FRAME><TIME_SYSTEM>UTC</TIME_SYSTEM><MEAN_ELEMENT_THEORY>SGP4</MEAN_ELEMENT_THEORY></metadata><data><meanElements><EPOCH>2025-06-10T20:10:46.579296</EPOCH><MEAN_MOTION>13.11415500</MEAN_MOTION><ECCENTRICITY>.0002249</ECCENTRICITY><INCLINATION>87.8837</INCLINATION><RA_OF_ASC_NODE>95.0577</RA_OF_ASC_NODE><ARG_OF_PERICENTER>72.6082</ARG_OF_PERICENTER><MEAN_ANOMALY>287.5292</MEAN_ANOMALY></meanElements><tleParameters><EPHEMERIS_TYPE>0</EPHEMERIS_TYPE><CLASSIFICATION_TYPE>U</CLASSIFICATION_TYPE><NORAD_CAT_ID>50488</NORAD_CAT_ID><ELEMENT_SET_NO>999</ELEMENT_SET_NO><REV_AT_EPOCH>16691</REV_AT_EPOCH><BSTAR>-.12984E-2</BSTAR><MEAN_MOTION_DOT>-.447E-5</MEAN_MOTION_DOT><MEAN_MOTION_DDOT>0</MEAN_MOTION_DDOT></tleParameters></data></segment></body></omm>
<omm id="CCSDS_OMM_VERS" version="2.0">
<header><CREATION_DATE/><ORIGINATOR/></header><body><segment><metadata><OBJECT_NAME>ONEWEB-0412</OBJECT_NAME><OBJECT_ID>2021-132W</OBJECT_ID><CENTER_NAME>EARTH</CENTER_NAME><REF_FRAME>TEME</REF_FRAME><TIME_SYSTEM>UTC</TIME_SYSTEM><MEAN_ELEMENT_THEORY>SGP4</MEAN_ELEMENT_THEORY></metadata><data><meanElements><EPOCH>2025-06-10T21:59:31.936704</EPOCH><MEAN_MOTION>13.18687957</MEAN_MOTION><ECCENTRICITY>.0001498</ECCENTRICITY><INCLINATION>87.9150</INCLINATION><RA_OF_ASC_NODE>49.2400</RA_OF_ASC_NODE><ARG_OF_PERICENTER>85.3493</ARG_OF_PERICENTER><MEAN_ANOMALY>274.7810</MEAN_ANOMALY></meanElements><tleParameters><EPHEMERIS_TYPE>0</EPHEMERIS_TYPE><CLASSIFICATION_TYPE>U</CLASSIFICATION_TYPE><NORAD_CAT_ID>50489</NORAD_CAT_ID><ELEMENT_SET_NO>999</ELEMENT_SET_NO><REV_AT_EPOCH>17272</REV_AT_EPOCH><BSTAR>.72177E-4</BSTAR><MEAN_MOTION_DOT>.41E-6</MEAN_MOTION_DOT><MEAN_MOTION_DDOT>0</MEAN_MOTION_DDOT></tleParameters></data></segment></body></omm>
<omm id="CCSDS_OMM_VERS" version="2.0">
<header><CREATION_DATE/><ORIGINATOR/></header><body><segment><metadata><OBJECT_NAME>ONEWEB-0413</OBJECT_NAME><OBJECT_ID>2021-132X</OBJECT_ID><CENTER_NAME>EARTH</CENTER_NAME><REF_FRAME>TEME</REF_FRAME><TIME_SYSTEM>UTC</TIME_SYSTEM><MEAN_ELEMENT_THEORY>SGP4</MEAN_ELEMENT_THEORY></metadata><data><meanElements><EPOCH>2025-06-10T22:06:22.673664</EPOCH><MEAN_MOTION>13.18688024</MEAN_MOTION><ECCENTRICITY>.000161</ECCENTRICITY><INCLINATION>87.9154</INCLINATION><RA_OF_ASC_NODE>49.2528</RA_OF_ASC_NODE><ARG_OF_PERICENTER>87.4851</ARG_OF_PERICENTER><MEAN_ANOMALY>272.6465</MEAN_ANOMALY></meanElements><tleParameters><EPHEMERIS_TYPE>0</EPHEMERIS_TYPE><CLASSIFICATION_TYPE>U</CLASSIFICATION_TYPE><NORAD_CAT_ID>50490</NORAD_CAT_ID><ELEMENT_SET_NO>999</ELEMENT_SET_NO><REV_AT_EPOCH>17266</REV_AT_EPOCH><BSTAR>.96501E-4</BSTAR><MEAN_MOTION_DOT>.51E-6</MEAN_MOTION_DOT><MEAN_MOTION_DDOT>0</MEAN_MOTION_DDOT></tleParameters></data></segment></body></omm>

</ndm>
